{
  "type": "FeatureCollection",
  "features": [
    {
      "type": "Feature",
      "properties": {
        "norad_id": 30760,
        "name": "FENGYUN 1C DEB",
        "group": "fengyun-1c-debris",
        "lat": -17.310094282857865,
        "lon": 166.6350477887024,
        "alt_km": 904.4872463254878,
        "timestamp": "2025-12-18T21:31:51.280368+00:00",
        "meta_object_name": "FENGYUN 1C DEB",
        "meta_object_id": "1999-025ATW",
        "meta_epoch": "2025-12-17T22:22:29.492256",
        "meta_mean_motion": 14.05184041,
        "meta_eccentricity": 0.00525928,
        "meta_inclination": 98.8222,
        "meta_ra_of_asc_node": 348.4709,
        "meta_arg_of_pericenter": 328.8269,
        "meta_mean_anomaly": 30.9783,
        "meta_ephemeris_type": 0,
        "meta_classification_type": "U",
        "meta_norad_cat_id": 30760,
        "meta_element_set_no": 999,
        "meta_rev_at_epoch": 96295,
        "meta_bstar": 0.00032232002,
        "meta_mean_motion_dot": 4.84e-06,
        "meta_mean_motion_ddot": 0,
        "tle_line1": "1 30760U 99025ATW 25351.93228579  .00000484  00000+0  32232-3 0  9992",
        "tle_line2": "2 30760  98.8222 348.4709 0052592 328.8269  30.9783 14.05184041962954"
      },
      "geometry": {
        "type": "Point",
        "coordinates": [
          166.6350477887024,
          -17.310094282857865
        ]
      }
    },
    {
      "type": "Feature",
      "properties": {
        "norad_id": 30761,
        "name": "FENGYUN 1C DEB",
        "group": "fengyun-1c-debris",
        "lat": -79.5059130330068,
        "lon": 40.761251696427294,
        "alt_km": 728.1623867381568,
        "timestamp": "2025-12-18T21:31:51.280378+00:00",
        "meta_object_name": "FENGYUN 1C DEB",
        "meta_object_id": "1999-025ATX",
        "meta_epoch": "2025-12-18T06:54:59.169312",
        "meta_mean_motion": 14.35807465,
        "meta_eccentricity": 0.00840697,
        "meta_inclination": 98.9663,
        "meta_ra_of_asc_node": 278.597,
        "meta_arg_of_pericenter": 297.5743,
        "meta_mean_anomaly": 61.6921,
        "meta_ephemeris_type": 0,
        "meta_classification_type": "U",
        "meta_norad_cat_id": 30761,
        "meta_element_set_no": 999,
        "meta_rev_at_epoch": 97821,
        "meta_bstar": 0.00080963907,
        "meta_mean_motion_dot": 2.391e-05,
        "meta_mean_motion_ddot": 0,
        "tle_line1": "1 30761U 99025ATX 25352.28818483  .00002391  00000+0  80964-3 0  9995",
        "tle_line2": "2 30761  98.9663 278.5970 0084069 297.5743  61.6921 14.35807465978217"
      },
      "geometry": {
        "type": "Point",
        "coordinates": [
          40.761251696427294,
          -79.5059130330068
        ]
      }
    },
    {
      "type": "Feature",
      "properties": {
        "norad_id": 30762,
        "name": "FENGYUN 1C DEB",
        "group": "fengyun-1c-debris",
        "lat": -34.226033686445234,
        "lon": -10.412572518555045,
        "alt_km": 807.6195471747569,
        "timestamp": "2025-12-18T21:31:51.280389+00:00",
        "meta_object_name": "FENGYUN 1C DEB",
        "meta_object_id": "1999-025ATY",
        "meta_epoch": "2025-12-17T17:21:55.357632",
        "meta_mean_motion": 13.98101636,
        "meta_eccentricity": 0.01973973,
        "meta_inclination": 98.8749,
        "meta_ra_of_asc_node": 342.3505,
        "meta_arg_of_pericenter": 281.3022,
        "meta_mean_anomaly": 258.9527,
        "meta_ephemeris_type": 0,
        "meta_classification_type": "U",
        "meta_norad_cat_id": 30762,
        "meta_element_set_no": 999,
        "meta_rev_at_epoch": 95707,
        "meta_bstar": 0.00053814649,
        "meta_mean_motion_dot": 8.59e-06,
        "meta_mean_motion_ddot": 0,
        "tle_line1": "1 30762U 99025ATY 25351.72355738  .00000859  00000+0  53815-3 0  9995",
        "tle_line2": "2 30762  98.8749 342.3505 0197397 281.3022 258.9527 13.98101636957075"
      },
      "geometry": {
        "type": "Point",
        "coordinates": [
          -10.412572518555045,
          -34.226033686445234
        ]
      }
    },
    {
      "type": "Feature",
      "properties": {
        "norad_id": 30763,
        "name": "FENGYUN 1C DEB",
        "group": "fengyun-1c-debris",
        "lat": 21.77170267092887,
        "lon": -111.69675035835877,
        "alt_km": 689.3941226362394,
        "timestamp": "2025-12-18T21:31:51.280399+00:00",
        "meta_object_name": "FENGYUN 1C DEB",
        "meta_object_id": "1999-025ATZ",
        "meta_epoch": "2025-12-17T10:53:18.600000",
        "meta_mean_motion": 14.61285004,
        "meta_eccentricity": 0.00238192,
        "meta_inclination": 98.8933,
        "meta_ra_of_asc_node": 63.1674,
        "meta_arg_of_pericenter": 254.9474,
        "meta_mean_anomaly": 234.1054,
        "meta_ephemeris_type": 0,
        "meta_classification_type": "U",
        "meta_norad_cat_id": 30763,
        "meta_element_set_no": 999,
        "meta_rev_at_epoch": 97213,
        "meta_bstar": 0.0031721259,
        "meta_mean_motion_dot": 0.00015698,
        "meta_mean_motion_ddot": 0,
        "tle_line1": "1 30763U 99025ATZ 25351.45368750  .00015698  00000+0  31721-2 0  9992",
        "tle_line2": "2 30763  98.8933  63.1674 0023819 254.9474 234.1054 14.61285004972138"
      },
      "geometry": {
        "type": "Point",
        "coordinates": [
          -111.69675035835877,
          21.77170267092887
        ]
      }
    },
    {
      "type": "Feature",
      "properties": {
        "norad_id": 30764,
        "name": "FENGYUN 1C DEB",
        "group": "fengyun-1c-debris",
        "lat": 80.36359187348346,
        "lon": -149.8117798257708,
        "alt_km": 439.7596144773943,
        "timestamp": "2025-12-18T21:31:51.280409+00:00",
        "meta_object_name": "FENGYUN 1C DEB",
        "meta_object_id": "1999-025AUA",
        "meta_epoch": "2025-12-17T21:34:02.326656",
        "meta_mean_motion": 15.29393084,
        "meta_eccentricity": 0.00763702,
        "meta_inclination": 98.7786,
        "meta_ra_of_asc_node": 323.4854,
        "meta_arg_of_pericenter": 152.3937,
        "meta_mean_anomaly": 208.1387,
        "meta_ephemeris_type": 0,
        "meta_classification_type": "U",
        "meta_norad_cat_id": 30764,
        "meta_element_set_no": 999,
        "meta_rev_at_epoch": 1301,
        "meta_bstar": 0.00089208942,
        "meta_mean_motion_dot": 0.00027756,
        "meta_mean_motion_ddot": 0,
        "tle_line1": "1 30764U 99025AUA 25351.89863804  .00027756  00000+0  89209-3 0  9994",
        "tle_line2": "2 30764  98.7786 323.4854 0076370 152.3937 208.1387 15.29393084 13017"
      },
      "geometry": {
        "type": "Point",
        "coordinates": [
          -149.8117798257708,
          80.36359187348346
        ]
      }
    },
    {
      "type": "Feature",
      "properties": {
        "norad_id": 30765,
        "name": "FENGYUN 1C DEB",
        "group": "fengyun-1c-debris",
        "lat": 15.247218500755668,
        "lon": -138.78422744174304,
        "alt_km": 799.8704229866698,
        "timestamp": "2025-12-18T21:31:51.280420+00:00",
        "meta_object_name": "FENGYUN 1C DEB",
        "meta_object_id": "1999-025AUB",
        "meta_epoch": "2025-12-18T02:13:21.153216",
        "meta_mean_motion": 14.1472774,
        "meta_eccentricity": 0.00685256,
        "meta_inclination": 98.7878,
        "meta_ra_of_asc_node": 38.0073,
        "meta_arg_of_pericenter": 193.9535,
        "meta_mean_anomaly": 195.737,
        "meta_ephemeris_type": 0,
        "meta_classification_type": "U",
        "meta_norad_cat_id": 30765,
        "meta_element_set_no": 999,
        "meta_rev_at_epoch": 96898,
        "meta_bstar": 0.00063057404,
        "meta_mean_motion_dot": 1.198e-05,
        "meta_mean_motion_ddot": 0,
        "tle_line1": "1 30765U 99025AUB 25352.09260594  .00001198  00000+0  63057-3 0  9990",
        "tle_line2": "2 30765  98.7878  38.0073 0068525 193.9535 195.7370 14.14727740968981"
      },
      "geometry": {
        "type": "Point",
        "coordinates": [
          -138.78422744174304,
          15.247218500755668
        ]
      }
    },
    {
      "type": "Feature",
      "properties": {
        "norad_id": 30766,
        "name": "FENGYUN 1C DEB",
        "group": "fengyun-1c-debris",
        "lat": -71.47434404273338,
        "lon": 20.156259232372797,
        "alt_km": 907.3262661824365,
        "timestamp": "2025-12-18T21:31:51.280429+00:00",
        "meta_object_name": "FENGYUN 1C DEB",
        "meta_object_id": "1999-025AUC",
        "meta_epoch": "2025-12-15T07:04:11.928864",
        "meta_mean_motion": 14.09535307,
        "meta_eccentricity": 0.00836782,
        "meta_inclination": 98.6724,
        "meta_ra_of_asc_node": 349.591,
        "meta_arg_of_pericenter": 67.2731,
        "meta_mean_anomaly": 309.6105,
        "meta_ephemeris_type": 0,
        "meta_classification_type": "U",
        "meta_norad_cat_id": 30766,
        "meta_element_set_no": 999,
        "meta_rev_at_epoch": 62833,
        "meta_bstar": 0.00078621277,
        "meta_mean_motion_dot": 1.379e-05,
        "meta_mean_motion_ddot": 0,
        "tle_line1": "1 30766U 99025AUC 25349.29458251  .00001379  00000+0  78621-3 0  9992",
        "tle_line2": "2 30766  98.6724 349.5910 0083678  67.2731 309.6105 14.09535307628332"
      },
      "geometry": {
        "type": "Point",
        "coordinates": [
          20.156259232372797,
          -71.47434404273338
        ]
      }
    }
  ]
}